[
    {
        "Altitude(m)": 622205.8835912978,
        "Argument of Periapsis(deg)": 0.0,
        "Eccentricity": 0.0,
        "Inclination(deg)": 60.0,
        "Latitude(deg)": -52.16247985257212,
        "Longitude(deg)": -147.29971063609565,
        "Mean Anomaly(deg)": 245.4545,
        "RAAN(deg)": 85.00000000000001,
        "Satellite Name": "Test1 389",
        "Satellite Number": 389,
        "Semi-Major Axis(m)": 6980739.136638005,
        "Time(s)": 0
    },
    {
        "Altitude(m)": 622344.7904826752,
        "Argument of Periapsis(deg)": 0.00010418945913296404,
        "Eccentricity": 0.0,
        "Inclination(deg)": 60.0,
        "Latitude(deg)": -52.52006055755201,
        "Longitude(deg)": -146.51849883892802,
        "Mean Anomaly(deg)": 246.07460614546184,
        "RAAN(deg)": 84.99957995086027,
        "Satellite Name": "Test1 389",
        "Satellite Number": 389,
        "Semi-Major Axis(m)": 6980739.136638005,
        "Time(s)": 10
    },
    {
        "Altitude(m)": 622480.8537213907,
        "Argument of Periapsis(deg)": 0.0002083789182659281,
        "Eccentricity": 0.0,
        "Inclination(deg)": 60.0,
        "Latitude(deg)": -52.871804662371915,
        "Longitude(deg)": -145.72395483778232,
        "Mean Anomaly(deg)": 246.69471229092363,
        "RAAN(deg)": 84.99915990172053,
        "Satellite Name": "Test1 389",
        "Satellite Number": 389,
        "Semi-Major Axis(m)": 6980739.136638005,
        "Time(s)": 20
    },
    {
        "Altitude(m)": 622614.0200759469,
        "Argument of Periapsis(deg)": 0.00031256837739889213,
        "Eccentricity": 0.0,
        "Inclination(deg)": 60.0,
        "Latitude(deg)": -53.21754430541095,
        "Longitude(deg)": -144.91591766092745,
        "Mean Anomaly(deg)": 247.31481843638548,
        "RAAN(deg)": 84.99873985258077,
        "Satellite Name": "Test1 389",
        "Satellite Number": 389,
        "Semi-Major Axis(m)": 6980739.136638005,
        "Time(s)": 30
    },
    {
        "Altitude(m)": 622744.2374250876,
        "Argument of Periapsis(deg)": 0.0004167578365318562,
        "Eccentricity": 0.0,
        "Inclination(deg)": 60.0,
        "Latitude(deg)": -53.55710821809791,
        "Longitude(deg)": -144.09423795979657,
        "Mean Anomaly(deg)": 247.9349245818473,
        "RAAN(deg)": 84.99831980344103,
        "Satellite Name": "Test1 389",
        "Satellite Number": 389,
        "Semi-Major Axis(m)": 6980739.136638005,
        "Time(s)": 40
    },
    {
        "Altitude(m)": 622871.4547800256,
        "Argument of Periapsis(deg)": 0.0005209472956648203,
        "Eccentricity": 0.0,
        "Inclination(deg)": 60.0,
        "Latitude(deg)": -53.890321847667884,
        "Longitude(deg)": -143.25878040550216,
        "Mean Anomaly(deg)": 248.55503072730914,
        "RAAN(deg)": 84.99789975430129,
        "Satellite Name": "Test1 389",
        "Satellite Number": 389,
        "Semi-Major Axis(m)": 6980739.136638005,
        "Time(s)": 50
    },
    {
        "Altitude(m)": 622995.622306192,
        "Argument of Periapsis(deg)": 0.0006251367547977843,
        "Eccentricity": 0.0,
        "Inclination(deg)": 60.0,
        "Latitude(deg)": -54.21700750390628,
        "Longitude(deg)": -142.40942463608613,
        "Mean Anomaly(deg)": 249.17513687277093,
        "RAAN(deg)": 84.99747970516155,
        "Satellite Name": "Test1 389",
        "Satellite Number": 389,
        "Semi-Major Axis(m)": 6980739.136638005,
        "Time(s)": 60
    },
    {
        "Altitude(m)": 623116.6913444787,
        "Argument of Periapsis(deg)": 0.0007293262139307483,
        "Eccentricity": 0.0,
        "Inclination(deg)": 60.0,
        "Latitude(deg)": -54.53698453149515,
        "Longitude(deg)": -141.54606626301447,
        "Mean Anomaly(deg)": 249.79524301823278,
        "RAAN(deg)": 84.9970596560218,
        "Satellite Name": "Test1 389",
        "Satellite Number": 389,
        "Semi-Major Axis(m)": 6980739.136638005,
        "Time(s)": 70
    },
    {
        "Altitude(m)": 623234.6144319432,
        "Argument of Periapsis(deg)": 0.0008335156730637124,
        "Eccentricity": 0.0,
        "Inclination(deg)": 60.0,
        "Latitude(deg)": -54.85006950953106,
        "Longitude(deg)": -140.6686194441487,
        "Mean Anomaly(deg)": 250.4153491636946,
        "RAAN(deg)": 84.99663960688207,
        "Satellite Name": "Test1 389",
        "Satellite Number": 389,
        "Semi-Major Axis(m)": 6980739.136638005,
        "Time(s)": 80
    },
    {
        "Altitude(m)": 623349.3453220382,
        "Argument of Periapsis(deg)": 0.0009377051321966765,
        "Eccentricity": 0.0,
        "Inclination(deg)": 60.0,
        "Latitude(deg)": -55.15607647972685,
        "Longitude(deg)": -139.77701799039366,
        "Mean Anomaly(deg)": 251.03545530915648,
        "RAAN(deg)": 84.99621955774232,
        "Satellite Name": "Test1 389",
        "Satellite Number": 389,
        "Semi-Major Axis(m)": 6980739.136638005,
        "Time(s)": 90
    },
    {
        "Altitude(m)": 623460.8390042445,
        "Argument of Periapsis(deg)": 0.0010418945913296407,
        "Eccentricity": 0.0,
        "Inclination(deg)": 60.0,
        "Latitude(deg)": -55.45481720470045,
        "Longitude(deg)": -138.8712165103382,
        "Mean Anomaly(deg)": 251.65556145461832,
        "RAAN(deg)": 84.99579950860257,
        "Satellite Name": "Test1 389",
        "Satellite Number": 389,
        "Semi-Major Axis(m)": 6980739.136638005,
        "Time(s)": 100
    },
    {
        "Altitude(m)": 623569.051723229,
        "Argument of Periapsis(deg)": 0.0011460840504626045,
        "Eccentricity": 0.0,
        "Inclination(deg)": 60.0,
        "Latitude(deg)": -55.74610145762292,
        "Longitude(deg)": -137.95119309561386,
        "Mean Anomaly(deg)": 252.27566760008006,
        "RAAN(deg)": 84.99537945946282,
        "Satellite Name": "Test1 389",
        "Satellite Number": 389,
        "Semi-Major Axis(m)": 6980739.136638005,
        "Time(s)": 110
    },
    {
        "Altitude(m)": 623673.9409974114,
        "Argument of Periapsis(deg)": 0.0012502735095955685,
        "Eccentricity": 0.0,
        "Inclination(deg)": 60.0,
        "Latitude(deg)": -56.02973734433526,
        "Longitude(deg)": -137.01695050938434,
        "Mean Anomaly(deg)": 252.89577374554196,
        "RAAN(deg)": 84.99495941032309,
        "Satellite Name": "Test1 389",
        "Satellite Number": 389,
        "Semi-Major Axis(m)": 6980739.136638005,
        "Time(s)": 120
    },
    {
        "Altitude(m)": 623775.4656370186,
        "Argument of Periapsis(deg)": 0.0013544629687285324,
        "Eccentricity": 0.0,
        "Inclination(deg)": 60.0,
        "Latitude(deg)": -56.305531658826986,
        "Longitude(deg)": -136.0685173772903,
        "Mean Anomaly(deg)": 253.51587989100378,
        "RAAN(deg)": 84.99453936118334,
        "Satellite Name": "Test1 389",
        "Satellite Number": 389,
        "Semi-Major Axis(m)": 6980739.136638005,
        "Time(s)": 130
    },
    {
        "Altitude(m)": 623873.5857615399,
        "Argument of Periapsis(deg)": 0.0014586524278614966,
        "Eccentricity": 0.0,
        "Inclination(deg)": 60.0,
        "Latitude(deg)": -56.57329027271972,
        "Longitude(deg)": -135.10595087841685,
        "Mean Anomaly(deg)": 254.13598603646562,
        "RAAN(deg)": 84.99411931204361,
        "Satellite Name": "Test1 389",
        "Satellite Number": 389,
        "Semi-Major Axis(m)": 6980739.136638005,
        "Time(s)": 140
    },
    {
        "Altitude(m)": 623968.262816657,
        "Argument of Periapsis(deg)": 0.0015628418869944607,
        "Eccentricity": 0.0,
        "Inclination(deg)": 60.0,
        "Latitude(deg)": -56.83281855911055,
        "Longitude(deg)": -134.12933789349862,
        "Mean Anomaly(deg)": 254.75609218192747,
        "RAAN(deg)": 84.99369926290386,
        "Satellite Name": "Test1 389",
        "Satellite Number": 389,
        "Semi-Major Axis(m)": 6980739.136638005,
        "Time(s)": 150
    },
    {
        "Altitude(m)": 624059.4595905719,
        "Argument of Periapsis(deg)": 0.0016670313461274247,
        "Eccentricity": 0.0,
        "Inclination(deg)": 60.0,
        "Latitude(deg)": -57.08392185078574,
        "Longitude(deg)": -133.13879610452042,
        "Mean Anomaly(deg)": 255.37619832738926,
        "RAAN(deg)": 84.99327921376413,
        "Satellite Name": "Test1 389",
        "Satellite Number": 389,
        "Semi-Major Axis(m)": 6980739.136638005,
        "Time(s)": 160
    },
    {
        "Altitude(m)": 624147.1402297672,
        "Argument of Periapsis(deg)": 0.0017712208052603888,
        "Eccentricity": 0.0,
        "Inclination(deg)": 60.0,
        "Latitude(deg)": -57.326405932432586,
        "Longitude(deg)": -132.13447653829746,
        "Mean Anomaly(deg)": 255.99630447285108,
        "RAAN(deg)": 84.99285916462438,
        "Satellite Name": "Test1 389",
        "Satellite Number": 389,
        "Semi-Major Axis(m)": 6980739.136638005,
        "Time(s)": 170
    },
    {
        "Altitude(m)": 624231.2702541907,
        "Argument of Periapsis(deg)": 0.001875410264393353,
        "Eccentricity": 0.0,
        "Inclination(deg)": 60.0,
        "Latitude(deg)": -57.56007756605806,
        "Longitude(deg)": -131.11656450657426,
        "Mean Anomaly(deg)": 256.6164106183129,
        "RAAN(deg)": 84.99243911548464,
        "Satellite Name": "Test1 389",
        "Satellite Number": 389,
        "Semi-Major Axis(m)": 6980739.136638005,
        "Time(s)": 180
    },
    {
        "Altitude(m)": 624311.8165718479,
        "Argument of Periapsis(deg)": 0.0019795997235263173,
        "Eccentricity": 0.0,
        "Inclination(deg)": 60.0,
        "Latitude(deg)": -57.784745048353415,
        "Longitude(deg)": -130.08528043259673,
        "Mean Anomaly(deg)": 257.23651676377466,
        "RAAN(deg)": 84.9920190663449,
        "Satellite Name": "Test1 389",
        "Satellite Number": 389,
        "Semi-Major Axis(m)": 6980739.136638005,
        "Time(s)": 190
    }
]